
BEIDOU-2 G3             
1 36590U 10024A   25057.06989311 -.00000134  00000+0  00000+0 0  9993
2 36590   3.3893  62.3126 0008119 321.0510 237.5116  1.00273403 53993
BADR-5                  
1 36592U 10025A   25057.10322611  .00000144  00000+0  00000+0 0  9995
2 36592   0.0400 125.1843 0000765 266.6963 187.4407  1.00270221 48447
SJ-12                   
1 36596U 10027A   25057.57716476  .00011995  00000+0  73647-3 0  9995
2 36596  97.7712  60.7895 0005487 294.7869  65.2788 15.10243654802915
TANDEM-X                
1 36605U 10030A   25057.55690327  .00006190  00000+0  29775-3 0  9998
2 36605  97.4462  67.0558 0001838  97.8810 262.2634 15.19146484814425
COMS 1                  
1 36744U 10032A   25057.49750398 -.00000345  00000+0  00000+0 0  9995
2 36744   3.5837  81.5823 0000902 274.2843 107.9761  1.00270141 46322
ARABSAT-5A              
1 36745U 10032B   25057.09767125  .00000153  00000+0  00000+0 0  9994
2 36745   0.0506  34.8573 0003350 326.0826 220.8814  1.00275319 53872
ECHOSTAR 15             
1 36792U 10034A   25056.08100486 -.00000279  00000+0  00000+0 0  9997
2 36792   0.0345 273.2062 0002158  39.7638 169.7287  1.00272629 53541
CARTOSAT-2B             
1 36795U 10035A   25057.57264393  .00002248  00000+0  31267-3 0  9994
2 36795  97.8244 115.2613 0010922 295.2535  64.7544 14.78749554789569
AISSAT 1                
1 36797U 10035C   25057.55044926  .00006222  00000+0  58618-3 0  9997
2 36797  98.1526 294.5657 0009141 181.0999 179.0201 14.94175069793112
ALSAT 2A                
1 36798U 10035D   25057.54955116  .00002469  00000+0  38871-3 0  9997
2 36798  97.7711  75.1150 0001278  75.1796 284.9554 14.73332485783699
TISAT 1                 
1 36799U 10035E   25057.48567398  .00027622  00000+0  15804-2 0  9990
2 36799  98.0664 325.3830 0005722  89.5142 270.6742 15.12610136795362
BEIDOU-2 IGSO-1         
1 36828U 10036A   25056.61992620 -.00000153  00000+0  00000+0 0  9998
2 36828  54.2690 167.2728 0045142 209.2866 108.1585  1.00257088 53442
NILESAT 201             
1 36830U 10037A   25056.21572534 -.00000056  00000+0  00000+0 0  9998
2 36830   0.0188 167.2297 0003009 177.1484 241.5744  1.00271733 53589
RASCOM-QAF 1R           
1 36831U 10037B   25056.38169896  .00000020  00000+0  00000+0 0  9990
2 36831   0.0480 104.8213 0006132 223.5312 327.4134  1.00272647 53511
YAOGAN-10               
1 36834U 10038A   25057.57248536  .00002221  00000+0  27381-3 0  9995
2 36834  97.9350  79.2628 0001387  97.8661 359.8741 14.83907193786642
AEHF-1 (USA 214)        
1 36868U 10039A   25056.26352505  .00000151  00000+0  00000+0 0  9995
2 36868   7.0223  74.1548 0003849 265.3808 300.6453  1.00274502 48871
TIANHUI 1               
1 36985U 10040A   25057.48042193  .00494990  10766-3  10108-2 0  9996
2 36985  97.5313 331.2356 0006067  52.4180 307.7648 15.99401290808778
COSMOS 2467             
1 37152U 10043A   25057.56472751  .00000024  00000+0  10126-3 0  9990
2 37152  82.4622   2.5288 0002360  84.3055  90.0533 12.42963478656413
STRELA 3                
1 37153U 10043B   25057.57364487  .00000018  00000+0  61517-4 0  9992
2 37153  82.4614  14.6680 0008526  42.4041 317.7695 12.40779281655383
COSMOS 2468             
1 37154U 10043C   25057.61239336  .00000024  00000+0  10113-3 0  9994
2 37154  82.4661 359.9943 0013179 267.3155 266.8855 12.43725916656750
YAOGAN-11               
1 37165U 10047A   25057.49889910  .00003275  00000+0  42906-3 0  9991
2 37165  98.4336 254.9455 0035125 329.7083  30.2097 14.80704159777662
ZHEDA PIXING 1B         
1 37166U 10047B   25057.55157653  .00006558  00000+0  71105-3 0  9991
2 37166  97.8906  29.8712 0022064  51.0613 309.2566 14.88344578779593
ZHEDA PIXING 1C         
1 37167U 10047C   25057.53640680  .00007141  00000+0  77780-3 0  9991
2 37167  97.9226  31.5980 0021733  55.7676 304.5595 14.88137992779612
SBSS (USA 216)          
1 37168U 10048A   25057.62203284  .00009631  00000+0  52162-3 0  9991
2 37168  97.8028 288.5895 0091184  37.5313 348.0340 15.11263994780515
SHIJIAN-6 04A (SJ-6 04A)
1 37179U 10051A   25057.58403991  .00013483  00000+0  83186-3 0  9999
2 37179  97.8463  61.6018 0023730  59.6944 300.6628 15.09814497784989
SHIJIAN-6 04B (SJ-6 04B)
1 37180U 10051B   25057.56325552  .00002774  00000+0  24119-3 0  9997
2 37180  97.8568  53.8790 0012033  99.2475 261.0108 14.97770914784445
XM-5                    
1 37185U 10053A   25057.40808848 -.00000023  00000+0  00000+0 0  9996
2 37185   0.0152 182.9667 0001374 351.8134  13.3931  1.00268931 52718
GLOBALSTAR M079         
1 37188U 10054A   25057.57595590 -.00000079  00000+0  14067-3 0  9998
2 37188  52.0030 116.5056 0000683  94.9469  52.6401 12.62271242662484
GLOBALSTAR M074         
1 37189U 10054B   25057.60421671 -.00000069  00000+0  19484-3 0  9998
2 37189  52.0006 115.7601 0000689 128.6295  26.5563 12.62266782663093
GLOBALSTAR M076         
1 37190U 10054C   25057.63159030 -.00000068  00000+0  19920-3 0  9994
2 37190  52.0022 115.8341 0000910 112.0603  50.0827 12.62278083662813
GLOBALSTAR M077         
1 37191U 10054D   25057.54132808 -.00000090  00000+0  76967-4 0  9999
2 37191  52.0070  72.9354 0000400 110.8053  58.7470 12.62271213663170
GLOBALSTAR M075         
1 37192U 10054E   25057.29973642 -.00000097  00000+0  37980-4 0  9990
2 37192  51.9939 159.1628 0000773 117.5523 275.9205 12.62273332661849
GLOBALSTAR M073         
1 37193U 10054F   25057.48544168 -.00000074  00000+0  16441-3 0  9992
2 37193  52.0058  72.3336 0000503 102.1986  53.2927 12.62263770663856
BSAT-3B                 
1 37207U 10056B   25056.99905795 -.00000350  00000+0  00000+0 0  9999
2 37207   0.1077 259.3888 0001804  25.8507 340.3373  1.00270720 47327
BEIDOU-2 G4             
1 37210U 10057A   25057.48552568 -.00000112  00000+0  00000+0 0  9991
2 37210   2.4643  70.4403 0007697 204.2772 216.6436  1.00271954 52526
FENGYUN 3B              
1 37214U 10059A   25057.62879428  .00000284  00000+0  17078-3 0  9996
2 37214  99.0281  94.9509 0023153  93.6333 338.6310 14.14684738740185
COSMO-SKYMED 4          
1 37216U 10060A   25057.56207434  .00002083  00000+0  26825-3 0  9994
2 37216  97.8900 243.0578 0001492  87.0667 273.0717 14.82146791774113
SKYTERRA 1              
1 37218U 10061A   25057.52332309 -.00000116  00000+0  00000+0 0  9992
2 37218   4.1232  50.1276 0001859 271.8656 281.6897  1.00271410 52424
O/OREOS (USA 219)       
1 37224U 10062C   25057.44772553  .00006703  00000+0  68995-3 0  9998
2 37224  71.9701  75.4978 0017340 256.1913 103.7326 14.90482837 45677
HYLAS 1                 
1 37237U 10065A   25057.09767125  .00000155  00000+0  00000+0 0  9999
2 37237   4.4273  78.8541 0000695 332.4341 173.3033  1.00272933  2118
INTELSAT 17 (IS-17)     
1 37238U 10065B   25057.21017002 -.00000002  00000+0  00000+0 0  9998
2 37238   0.0143 196.3022 0002605 150.4545 311.1728  1.00272078 48476
BEIDOU-2 IGSO-2         
1 37256U 10068A   25057.38277302 -.00000148  00000+0  00000+0 0  9991
2 37256  48.4086 277.7072 0038810 212.4346 272.4304  1.00271046 52021
EUTELSAT KA-SAT 9A      
1 37258U 10069A   25056.98170024  .00000062  00000+0  00000+0 0  9996
2 37258   0.0702 295.5289 0001968 156.1622  66.8005  1.00273246 39230
HISPASAT 30W-5          
1 37264U 10070A   25056.47961534 -.00000215  00000+0  00000+0 0  9994
2 37264   0.0223 126.7237 0002984 241.1372 290.3993  1.00270893 48403
KOREASAT 6              
1 37265U 10070B   25057.47058604 -.00000113  00000+0  00000+0 0  9998
2 37265   0.0358  47.3661 0002000 308.7470 129.7091  1.00271383 52000
BEIDOU-2 IGSO-3         
1 37384U 11013A   25056.80632628 -.00000137  00000+0  00000+0 0  9994
2 37384  61.7322  44.6635 0031345 184.9304 322.9031  1.00294138 50880
RESOURCESAT-2           
1 37387U 11015A   25057.45222496 -.00000009  00000+0  15994-4 0  9990
2 37387  98.7109 121.7134 0012426 132.7469 227.4756 14.21524271718581
YOUTHSAT                
1 37388U 11015B   25057.54523049  .00000719  00000+0  32260-3 0  9990
2 37388  98.3183  49.6653 0013514 302.0325 170.8710 14.25290514719874
X-SAT                   
1 37389U 11015C   25057.54817897  .00000490  00000+0  22669-3 0  9996
2 37389  98.3070  53.7030 0013021 303.0074  56.9855 14.24969241719930
INTELSAT 28 (IS-28)     
1 37392U 11016A   25056.94558597 -.00000087  00000+0  00000+0 0  9997
2 37392   0.5702  89.1957 0003978 247.0278 152.3007  1.00146537 48519
YAHSAT 1A               
1 37393U 11016B   25057.21572775  .00000101  00000+0  00000+0 0  9999
2 37393   0.0098 124.5888 0002487 216.5254 305.3223  1.00268399 37631
SBIRS GEO-1 (USA 230)   
1 37481U 11019A   25057.21017002 -.00000002  00000+0  00000+0 0  9998
2 37481   3.5081  51.5656 0002392 283.6411 322.4352  1.00272299 50627
TELSTAR 14R             
1 37602U 11021A   25056.08100486 -.00000278  00000+0  00000+0 0  9994
2 37602   0.0105 168.6776 0002546 233.7749  78.8736  1.00271491 51009
GSAT-8                  
1 37605U 11022A   25057.14957132  .00000084  00000+0  00000+0 0  9998
2 37605   0.8956  88.0237 0007485 206.5880 330.5565  1.00270966 48440
ST-2                    
1 37606U 11022B   25057.15391947 -.00000212  00000+0  00000+0 0  9990
2 37606   0.0117 124.8207 0001785 243.9385 290.9037  1.00271898 50508
ZHONGXING-10            
1 37677U 11026A   25056.99905795 -.00000352  00000+0  00000+0 0  9990
2 37677   0.0510 275.5090 0001075 287.4039  63.3607  1.00270770 50220
SJ-11-03                
1 37730U 11030A   25057.56346885  .00002174  00000+0  42858-3 0  9992
2 37730  97.8719  35.9062 0009942  96.3154 357.5644 14.63410992727526
GLOBALSTAR M083         
1 37739U 11033A   25057.33958787 -.00000108  00000+0 -23339-4 0  9990
2 37739  51.9881  21.6577 0000406  57.2889  96.7837 12.62259561632853
